{
  "type": "FeatureCollection",
  "features": [
    {
      "type": "Feature",
      "properties": {
        "norad_id": 30979,
        "name": "FENGYUN 1C DEB",
        "group": "fengyun-1c-debris",
        "lat": 53.4721131931608,
        "lon": -112.4108754693188,
        "alt_km": 733.0288050361423,
        "timestamp": "2025-12-26T04:40:06.066380+00:00",
        "meta_object_name": "FENGYUN 1C DEB",
        "meta_object_id": "1999-025BBV",
        "meta_epoch": "2025-12-25T04:45:20.240352",
        "meta_mean_motion": 14.78983163,
        "meta_eccentricity": 0.019029,
        "meta_inclination": 97.83,
        "meta_ra_of_asc_node": 257.3251,
        "meta_arg_of_pericenter": 200.469,
        "meta_mean_anomaly": 313.3582,
        "meta_ephemeris_type": 0,
        "meta_classification_type": "U",
        "meta_norad_cat_id": 30979,
        "meta_element_set_no": 999,
        "meta_rev_at_epoch": 99329,
        "meta_bstar": 0.00083161,
        "meta_mean_motion_dot": 8.289e-05,
        "meta_mean_motion_ddot": 0,
        "tle_line1": "1 30979U 99025BBV 25359.19815093  .00008289  00000+0  83161-3 0  9991",
        "tle_line2": "2 30979  97.8300 257.3251 0190290 200.4690 313.3582 14.78983163993291"
      },
      "geometry": {
        "type": "Point",
        "coordinates": [
          -112.4108754693188,
          53.4721131931608
        ]
      }
    },
    {
      "type": "Feature",
      "properties": {
        "norad_id": 30982,
        "name": "FENGYUN 1C DEB",
        "group": "fengyun-1c-debris",
        "lat": 3.802586607870386,
        "lon": -10.424260595078225,
        "alt_km": 729.2638940129173,
        "timestamp": "2025-12-26T04:40:06.066391+00:00",
        "meta_object_name": "FENGYUN 1C DEB",
        "meta_object_id": "1999-025BBY",
        "meta_epoch": "2025-12-25T22:10:34.977216",
        "meta_mean_motion": 14.50991439,
        "meta_eccentricity": 0.01799099,
        "meta_inclination": 98.218,
        "meta_ra_of_asc_node": 349.8617,
        "meta_arg_of_pericenter": 271.7922,
        "meta_mean_anomaly": 117.9706,
        "meta_ephemeris_type": 0,
        "meta_classification_type": "U",
        "meta_norad_cat_id": 30982,
        "meta_element_set_no": 999,
        "meta_rev_at_epoch": 71245,
        "meta_bstar": 0.00029573789,
        "meta_mean_motion_dot": 1.387e-05,
        "meta_mean_motion_ddot": 0,
        "tle_line1": "1 30982U 99025BBY 25359.92401594  .00001387  00000+0  29574-3 0  9993",
        "tle_line2": "2 30982  98.2180 349.8617 0179909 271.7922 117.9706 14.50991439712450"
      },
      "geometry": {
        "type": "Point",
        "coordinates": [
          -10.424260595078225,
          3.802586607870386
        ]
      }
    },
    {
      "type": "Feature",
      "properties": {
        "norad_id": 30984,
        "name": "FENGYUN 1C DEB",
        "group": "fengyun-1c-debris",
        "lat": -33.68905179596405,
        "lon": -149.27396118729925,
        "alt_km": 763.8663638301814,
        "timestamp": "2025-12-26T04:40:06.066401+00:00",
        "meta_object_name": "FENGYUN 1C DEB",
        "meta_object_id": "1999-025BCA",
        "meta_epoch": "2025-12-25T01:11:10.996512",
        "meta_mean_motion": 14.50507957,
        "meta_eccentricity": 0.01265371,
        "meta_inclination": 98.2609,
        "meta_ra_of_asc_node": 35.1601,
        "meta_arg_of_pericenter": 330.2111,
        "meta_mean_anomaly": 29.192,
        "meta_ephemeris_type": 0,
        "meta_classification_type": "U",
        "meta_norad_cat_id": 30984,
        "meta_element_set_no": 999,
        "meta_rev_at_epoch": 95342,
        "meta_bstar": 0.00080906078,
        "meta_mean_motion_dot": 3.461e-05,
        "meta_mean_motion_ddot": 0,
        "tle_line1": "1 30984U 99025BCA 25359.04943283  .00003461  00000+0  80906-3 0  9995",
        "tle_line2": "2 30984  98.2609  35.1601 0126537 330.2111  29.1920 14.50507957953420"
      },
      "geometry": {
        "type": "Point",
        "coordinates": [
          -149.27396118729925,
          -33.68905179596405
        ]
      }
    },
    {
      "type": "Feature",
      "properties": {
        "norad_id": 30988,
        "name": "FENGYUN 1C DEB",
        "group": "fengyun-1c-debris",
        "lat": -77.44141574216607,
        "lon": -8.069940393083458,
        "alt_km": 417.5791457034611,
        "timestamp": "2025-12-26T04:40:06.066412+00:00",
        "meta_object_name": "FENGYUN 1C DEB",
        "meta_object_id": "1999-025BCE",
        "meta_epoch": "2025-12-24T07:25:39.389952",
        "meta_mean_motion": 15.27554396,
        "meta_eccentricity": 0.01086712,
        "meta_inclination": 98.5426,
        "meta_ra_of_asc_node": 307.3357,
        "meta_arg_of_pericenter": 299.8521,
        "meta_mean_anomaly": 59.1949,
        "meta_ephemeris_type": 0,
        "meta_classification_type": "U",
        "meta_norad_cat_id": 30988,
        "meta_element_set_no": 999,
        "meta_rev_at_epoch": 99740,
        "meta_bstar": 0.0020069634,
        "meta_mean_motion_dot": 0.00064814,
        "meta_mean_motion_ddot": 0,
        "tle_line1": "1 30988U 99025BCE 25358.30948368  .00064814  00000+0  20070-2 0  9990",
        "tle_line2": "2 30988  98.5426 307.3357 0108671 299.8521  59.1949 15.27554396997404"
      },
      "geometry": {
        "type": "Point",
        "coordinates": [
          -8.069940393083458,
          -77.44141574216607
        ]
      }
    },
    {
      "type": "Feature",
      "properties": {
        "norad_id": 30989,
        "name": "FENGYUN 1C DEB",
        "group": "fengyun-1c-debris",
        "lat": -10.696467720560797,
        "lon": 75.65759179556527,
        "alt_km": 829.8770974086601,
        "timestamp": "2025-12-26T04:40:06.066426+00:00",
        "meta_object_name": "FENGYUN 1C DEB",
        "meta_object_id": "1999-025BCF",
        "meta_epoch": "2025-12-25T21:55:34.052448",
        "meta_mean_motion": 14.14002805,
        "meta_eccentricity": 0.00897112,
        "meta_inclination": 99.0516,
        "meta_ra_of_asc_node": 73.6477,
        "meta_arg_of_pericenter": 62.5911,
        "meta_mean_anomaly": 298.4352,
        "meta_ephemeris_type": 0,
        "meta_classification_type": "U",
        "meta_norad_cat_id": 30989,
        "meta_element_set_no": 999,
        "meta_rev_at_epoch": 96174,
        "meta_bstar": 0.0013457098,
        "meta_mean_motion_dot": 2.613e-05,
        "meta_mean_motion_ddot": 0,
        "tle_line1": "1 30989U 99025BCF 25359.91358857  .00002613  00000+0  13457-2 0  9997",
        "tle_line2": "2 30989  99.0516  73.6477 0089711  62.5911 298.4352 14.14002805961740"
      },
      "geometry": {
        "type": "Point",
        "coordinates": [
          75.65759179556527,
          -10.696467720560797
        ]
      }
    },
    {
      "type": "Feature",
      "properties": {
        "norad_id": 30993,
        "name": "FENGYUN 1C DEB",
        "group": "fengyun-1c-debris",
        "lat": -66.22107600266476,
        "lon": -107.72237959849615,
        "alt_km": 779.0562051016996,
        "timestamp": "2025-12-26T04:40:06.066436+00:00",
        "meta_object_name": "FENGYUN 1C DEB",
        "meta_object_id": "1999-025BCK",
        "meta_epoch": "2025-12-25T19:44:16.813248",
        "meta_mean_motion": 14.35549224,
        "meta_eccentricity": 0.00162818,
        "meta_inclination": 98.8454,
        "meta_ra_of_asc_node": 92.5927,
        "meta_arg_of_pericenter": 332.1806,
        "meta_mean_anomaly": 153.8953,
        "meta_ephemeris_type": 0,
        "meta_classification_type": "U",
        "meta_norad_cat_id": 30993,
        "meta_element_set_no": 999,
        "meta_rev_at_epoch": 97107,
        "meta_bstar": 0.0018593886,
        "meta_mean_motion_dot": 5.319e-05,
        "meta_mean_motion_ddot": 0,
        "tle_line1": "1 30993U 99025BCK 25359.82241682  .00005319  00000+0  18594-2 0  9992",
        "tle_line2": "2 30993  98.8454  92.5927 0016281 332.1806 153.8953 14.35549224971076"
      },
      "geometry": {
        "type": "Point",
        "coordinates": [
          -107.72237959849615,
          -66.22107600266476
        ]
      }
    },
    {
      "type": "Feature",
      "properties": {
        "norad_id": 30994,
        "name": "FENGYUN 1C DEB",
        "group": "fengyun-1c-debris",
        "lat": -38.32091987136572,
        "lon": -178.7179522766535,
        "alt_km": 857.7099031762746,
        "timestamp": "2025-12-26T04:40:06.066446+00:00",
        "meta_object_name": "FENGYUN 1C DEB",
        "meta_object_id": "1999-025BCL",
        "meta_epoch": "2025-12-24T15:55:02.271072",
        "meta_mean_motion": 14.11777442,
        "meta_eccentricity": 0.00183968,
        "meta_inclination": 98.6996,
        "meta_ra_of_asc_node": 6.7476,
        "meta_arg_of_pericenter": 141.4604,
        "meta_mean_anomaly": 218.7885,
        "meta_ephemeris_type": 0,
        "meta_classification_type": "U",
        "meta_norad_cat_id": 30994,
        "meta_element_set_no": 999,
        "meta_rev_at_epoch": 96753,
        "meta_bstar": 0.00015647434,
        "meta_mean_motion_dot": 2.43e-06,
        "meta_mean_motion_ddot": 0,
        "tle_line1": "1 30994U 99025BCL 25358.66322073  .00000243  00000+0  15647-3 0  9996",
        "tle_line2": "2 30994  98.6996   6.7476 0018396 141.4604 218.7885 14.11777442967538"
      },
      "geometry": {
        "type": "Point",
        "coordinates": [
          -178.7179522766535,
          -38.32091987136572
        ]
      }
    }
  ]
}